start=new Date('2022-03-06T00:00:00.000Z').valueOf();
sats=[{"CENTER_NAME":"EARTH","TIME_SYSTEM":"UTC","REV_AT_EPOCH":"7900","BSTAR":"0.00007981200000","MEAN_ELEMENT_THEORY":"SGP4","OBJECT_ID":"2020-070AH","ECCENTRICITY":"0.00016930","ELEMENT_SET_NO":"999","TLE_LINE1":"1 46563U 20070AH  22064.87120001  .00000907  00000-0  79812-4 0  9993","SITE":"AFETR","SEMIMAJOR_AXIS":"6925.356","PERIOD":"95.592","OBJECT_TYPE":"PAYLOAD","PERIAPSIS":"546.048","RCS_SIZE":"LARGE","OBJECT_NAME":"STARLINK-1730","MEAN_MOTION_DOT":"0.00000907","COUNTRY_CODE":"US","GP_ID":"198018508","APOAPSIS":"548.393","CLASSIFICATION_TYPE":"U","ARG_OF_PERICENTER":"71.8676","MEAN_MOTION":"15.06397668","DECAY_DATE":null,"EPHEMERIS_TYPE":"0","TLE_LINE2":"2 46563  53.0554 252.4386 0001693  71.8676 288.2497 15.06397668 79009","RA_OF_ASC_NODE":"252.4386","EPOCH":"2022-03-05T20:54:31.680864","MEAN_ANOMALY":"288.2497","INCLINATION":"53.0554","NORAD_CAT_ID":"46563","LAUNCH_DATE":"2020-10-06","FILE":"3346512","REF_FRAME":"TEME","MEAN_MOTION_DDOT":"0.0000000000000"},{"MEAN_MOTION":"15.06403882","ARG_OF_PERICENTER":"87.4210","DECAY_DATE":null,"COUNTRY_CODE":"US","GP_ID":"198018759","APOAPSIS":"548.215","CLASSIFICATION_TYPE":"U","RCS_SIZE":"LARGE","MEAN_MOTION_DOT":"0.00000310","OBJECT_NAME":"STARLINK-1733","PERIAPSIS":"546.188","MEAN_MOTION_DDOT":"0.0000000000000","NORAD_CAT_ID":"46564","LAUNCH_DATE":"2020-10-06","REF_FRAME":"TEME","FILE":"3346512","INCLINATION":"53.0524","MEAN_ANOMALY":"272.6946","RA_OF_ASC_NODE":"252.8329","TLE_LINE2":"2 46564  53.0524 252.8329 0001463  87.4210 272.6946 15.06403882 78999","EPHEMERIS_TYPE":"0","EPOCH":"2022-03-05T18:52:26.717376","ECCENTRICITY":"0.00014630","OBJECT_ID":"2020-070AJ","TIME_SYSTEM":"UTC","CENTER_NAME":"EARTH","BSTAR":"0.00003971600000","REV_AT_EPOCH":"7899","MEAN_ELEMENT_THEORY":"SGP4","PERIOD":"95.592","OBJECT_TYPE":"PAYLOAD","SEMIMAJOR_AXIS":"6925.337","SITE":"AFETR","TLE_LINE1":"1 46564U 20070AJ  22064.78642034  .00000310  00000-0  39716-4 0  9996","ELEMENT_SET_NO":"999"},{"TIME_SYSTEM":"UTC","CENTER_NAME":"EARTH","BSTAR":"0.00019683000000","REV_AT_EPOCH":"7900","MEAN_ELEMENT_THEORY":"SGP4","OBJECT_ID":"2020-070AK","ECCENTRICITY":"0.00018070","ELEMENT_SET_NO":"999","TLE_LINE1":"1 46565U 20070AK  22064.89699926  .00002652  00000-0  19683-3 0  9992","SEMIMAJOR_AXIS":"6925.323","SITE":"AFETR","PERIOD":"95.592","OBJECT_TYPE":"PAYLOAD","PERIAPSIS":"545.937","RCS_SIZE":"LARGE","OBJECT_NAME":"STARLINK-1735","MEAN_MOTION_DOT":"0.00002652","APOAPSIS":"548.439","GP_ID":"198017008","COUNTRY_CODE":"US","CLASSIFICATION_TYPE":"U","MEAN_MOTION":"15.06408361","ARG_OF_PERICENTER":"71.9461","DECAY_DATE":null,"TLE_LINE2":"2 46565  53.0545 252.3295 0001807  71.9461 288.1724 15.06408361 79004","RA_OF_ASC_NODE":"252.3295","EPHEMERIS_TYPE":"0","EPOCH":"2022-03-05T21:31:40.736064","MEAN_ANOMALY":"288.1724","INCLINATION":"53.0545","LAUNCH_DATE":"2020-10-06","NORAD_CAT_ID":"46565","REF_FRAME":"TEME","FILE":"3346512","MEAN_MOTION_DDOT":"0.0000000000000"},{"SITE":"AFETR","SEMIMAJOR_AXIS":"6925.334","PERIOD":"95.592","OBJECT_TYPE":"PAYLOAD","ELEMENT_SET_NO":"999","TLE_LINE1":"1 46566U 20070AL  22064.88225590  .00001746  00000-0  13604-3 0  9994","ECCENTRICITY":"0.00015350","OBJECT_ID":"2020-070AL","CENTER_NAME":"EARTH","TIME_SYSTEM":"UTC","MEAN_ELEMENT_THEORY":"SGP4","BSTAR":"0.00013604000000","REV_AT_EPOCH":"7900","NORAD_CAT_ID":"46566","LAUNCH_DATE":"2020-10-06","FILE":"3346512","REF_FRAME":"TEME","MEAN_MOTION_DDOT":"0.0000000000000","TLE_LINE2":"2 46566  53.0519 252.3899 0001535  65.8612 294.2538 15.06404816 79006","RA_OF_ASC_NODE":"252.3899","EPHEMERIS_TYPE":"0","EPOCH":"2022-03-05T21:10:26.909760","INCLINATION":"53.0519","MEAN_ANOMALY":"294.2538","GP_ID":"198017258","COUNTRY_CODE":"US","APOAPSIS":"548.262","CLASSIFICATION_TYPE":"U","MEAN_MOTION":"15.06404816","ARG_OF_PERICENTER":"65.8612","DECAY_DATE":null,"PERIAPSIS":"546.136","RCS_SIZE":"LARGE","MEAN_MOTION_DOT":"0.00001746","OBJECT_NAME":"STARLINK-1740"},{"MEAN_MOTION_DDOT":"0.0000000000000","NORAD_CAT_ID":"46567","LAUNCH_DATE":"2020-10-06","REF_FRAME":"TEME","FILE":"3346512","INCLINATION":"53.0520","MEAN_ANOMALY":"283.0830","TLE_LINE2":"2 46567  53.0520 252.8683 0001447  77.0320 283.0830 15.06406009 78992","EPHEMERIS_TYPE":"0","RA_OF_ASC_NODE":"252.8683","EPOCH":"2022-03-05T18:41:49.665984","MEAN_MOTION":"15.06406009","ARG_OF_PERICENTER":"77.0320","DECAY_DATE":null,"GP_ID":"198018009","APOAPSIS":"548.197","COUNTRY_CODE":"US","CLASSIFICATION_TYPE":"U","MEAN_MOTION_DOT":"0.00000503","RCS_SIZE":"LARGE","OBJECT_NAME":"STARLINK-1741","PERIAPSIS":"546.193","PERIOD":"95.592","OBJECT_TYPE":"PAYLOAD","SITE":"AFETR","SEMIMAJOR_AXIS":"6925.330","TLE_LINE1":"1 46567U 20070AM  22064.77904706  .00000503  00000-0  52665-4 0  9997","ELEMENT_SET_NO":"999","OBJECT_ID":"2020-070AM","ECCENTRICITY":"0.00014470","CENTER_NAME":"EARTH","TIME_SYSTEM":"UTC","REV_AT_EPOCH":"7899","BSTAR":"0.00005266500000","MEAN_ELEMENT_THEORY":"SGP4"},{"NORAD_CAT_ID":"46568","LAUNCH_DATE":"2020-10-06","REF_FRAME":"TEME","FILE":"3346512","MEAN_MOTION_DDOT":"0.0000000000000","RA_OF_ASC_NODE":"220.2921","TLE_LINE2":"2 46568  53.0477 220.2921 0010824 279.5822  80.3968 15.61482515 79452","EPHEMERIS_TYPE":"0","EPOCH":"2022-03-05T19:43:18.209856","INCLINATION":"53.0477","MEAN_ANOMALY":"80.3968","GP_ID":"198018260","APOAPSIS":"390.695","COUNTRY_CODE":"US","CLASSIFICATION_TYPE":"U","ARG_OF_PERICENTER":"279.5822","MEAN_MOTION":"15.61482515","DECAY_DATE":null,"PERIAPSIS":"376.057","MEAN_MOTION_DOT":"0.00259746","RCS_SIZE":"LARGE","OBJECT_NAME":"STARLINK-1743","SITE":"AFETR","SEMIMAJOR_AXIS":"6761.511","PERIOD":"92.220","OBJECT_TYPE":"PAYLOAD","ELEMENT_SET_NO":"999","TLE_LINE1":"1 46568U 20070AN  22064.82173854  .00259746  00000-0  28857-2 0  9995","OBJECT_ID":"2020-070AN","ECCENTRICITY":"0.00108240","CENTER_NAME":"EARTH","TIME_SYSTEM":"UTC","MEAN_ELEMENT_THEORY":"SGP4","BSTAR":"0.00288570000000","REV_AT_EPOCH":"7945"},{"MEAN_MOTION_DOT":"0.00003736","RCS_SIZE":"LARGE","OBJECT_NAME":"STARLINK-1747","PERIAPSIS":"546.076","MEAN_MOTION":"15.06406690","ARG_OF_PERICENTER":"65.3126","DECAY_DATE":null,"APOAPSIS":"548.310","GP_ID":"198017508","COUNTRY_CODE":"US","CLASSIFICATION_TYPE":"U","MEAN_ANOMALY":"294.8030","INCLINATION":"53.0532","TLE_LINE2":"2 46569  53.0532 252.1901 0001613  65.3126 294.8030 15.06406690 79014","EPHEMERIS_TYPE":"0","RA_OF_ASC_NODE":"252.1901","EPOCH":"2022-03-05T22:14:07.923840","MEAN_MOTION_DDOT":"0.0000000000000","LAUNCH_DATE":"2020-10-06","NORAD_CAT_ID":"46569","REF_FRAME":"TEME","FILE":"3346512","CENTER_NAME":"EARTH","TIME_SYSTEM":"UTC","BSTAR":"0.00026950000000","REV_AT_EPOCH":"7901","MEAN_ELEMENT_THEORY":"SGP4","ECCENTRICITY":"0.00016130","OBJECT_ID":"2020-070AP","TLE_LINE1":"1 46569U 20070AP  22064.92648060  .00003736  00000-0  26950-3 0  9992","ELEMENT_SET_NO":"999","PERIOD":"95.592","OBJECT_TYPE":"PAYLOAD","SITE":"AFETR","SEMIMAJOR_AXIS":"6925.328"},{"EPOCH":"2022-03-05T21:37:00.412608","RA_OF_ASC_NODE":"252.3109","TLE_LINE2":"2 46570  53.0568 252.3109 0001615  79.9938 280.1233 15.06395335 79006","EPHEMERIS_TYPE":"0","INCLINATION":"53.0568","MEAN_ANOMALY":"280.1233","FILE":"3346512","REF_FRAME":"TEME","LAUNCH_DATE":"2020-10-06","NORAD_CAT_ID":"46570","MEAN_MOTION_DDOT":"0.0000000000000","PERIAPSIS":"546.109","MEAN_MOTION_DOT":"0.00001023","RCS_SIZE":"LARGE","OBJECT_NAME":"STARLINK-1748","CLASSIFICATION_TYPE":"U","COUNTRY_CODE":"US","GP_ID":"198017758","APOAPSIS":"548.346","DECAY_DATE":null,"ARG_OF_PERICENTER":"79.9938","MEAN_MOTION":"15.06395335","ELEMENT_SET_NO":"999","TLE_LINE1":"1 46570U 20070AQ  22064.90069922  .00001023  00000-0  87563-4 0  9991","SEMIMAJOR_AXIS":"6925.363","SITE":"AFETR","OBJECT_TYPE":"PAYLOAD","PERIOD":"95.592","BSTAR":"0.00008756300000","MEAN_ELEMENT_THEORY":"SGP4","REV_AT_EPOCH":"7900","TIME_SYSTEM":"UTC","CENTER_NAME":"EARTH","OBJECT_ID":"2020-070AQ","ECCENTRICITY":"0.00016150"},{"ECCENTRICITY":"0.00023940","OBJECT_ID":"2020-070AR","MEAN_ELEMENT_THEORY":"SGP4","BSTAR":"0.00079656000000","REV_AT_EPOCH":"7953","TIME_SYSTEM":"UTC","CENTER_NAME":"EARTH","SEMIMAJOR_AXIS":"6722.123","SITE":"AFETR","OBJECT_TYPE":"PAYLOAD","PERIOD":"91.415","ELEMENT_SET_NO":"999","TLE_LINE1":"1 46571U 20070AR  22064.66979156  .00123213  00000-0  79656-3 0  9993","CLASSIFICATION_TYPE":"U","APOAPSIS":"345.598","GP_ID":"198018509","COUNTRY_CODE":"US","DECAY_DATE":null,"MEAN_MOTION":"15.75226628","ARG_OF_PERICENTER":"226.8926","PERIAPSIS":"342.379","MEAN_MOTION_DOT":"0.00123213","RCS_SIZE":"LARGE","OBJECT_NAME":"STARLINK-1753","FILE":"3346512","REF_FRAME":"TEME","NORAD_CAT_ID":"46571","LAUNCH_DATE":"2020-10-06","MEAN_MOTION_DDOT":"0.0000000000000","EPOCH":"2022-03-05T16:04:29.990784","RA_OF_ASC_NODE":"213.5322","TLE_LINE2":"2 46571  53.0514 213.5322 0002394 226.8926 133.1893 15.75226628 79530","EPHEMERIS_TYPE":"0","MEAN_ANOMALY":"133.1893","INCLINATION":"53.0514"},{"SITE":"AFETR","SEMIMAJOR_AXIS":"6925.323","PERIOD":"95.592","OBJECT_TYPE":"PAYLOAD","ELEMENT_SET_NO":"999","TLE_LINE1":"1 46572U 20070AS  22064.83249883  .00005446  00000-0  38415-3 0  9995","OBJECT_ID":"2020-070AS","ECCENTRICITY":"0.00015620","CENTER_NAME":"EARTH","TIME_SYSTEM":"UTC","MEAN_ELEMENT_THEORY":"SGP4","BSTAR":"0.00038415000000","REV_AT_EPOCH":"7871","LAUNCH_DATE":"2020-10-06","NORAD_CAT_ID":"46572","FILE":"3346512","REF_FRAME":"TEME","MEAN_MOTION_DDOT":"0.0000000000000","TLE_LINE2":"2 46572  53.0540 272.6295 0001562  67.4321 292.6833 15.06408200 78715","RA_OF_ASC_NODE":"272.6295","EPHEMERIS_TYPE":"0","EPOCH":"2022-03-05T19:58:47.898912","INCLINATION":"53.0540","MEAN_ANOMALY":"292.6833","APOAPSIS":"548.270","GP_ID":"198018760","COUNTRY_CODE":"US","CLASSIFICATION_TYPE":"U","ARG_OF_PERICENTER":"67.4321","MEAN_MOTION":"15.06408200","DECAY_DATE":null,"PERIAPSIS":"546.107","RCS_SIZE":"LARGE","MEAN_MOTION_DOT":"0.00005446","OBJECT_NAME":"STARLINK-1531"}];
